OBJECT_NAME,OBJECT_ID,EPOCH,MEAN_MOTION,ECCENTRICITY,INCLINATION,RA_OF_ASC_NODE,ARG_OF_PERICENTER,MEAN_ANOMALY,EPHEMERIS_TYPE,CLASSIFICATION_TYPE,NORAD_CAT_ID,ELEMENT_SET_NO,REV_AT_EPOCH,BSTAR,MEAN_MOTION_DOT,MEAN_MOTION_DDOT
KUIPER-00606,2026-118Y,2026-06-08T12:00:02.000160,15.37597904,.0004694,51.8693,95.2567,121.4253,337.1977,0,U,69289,999,220,-.20156E-3,-.7943E-4,0
KUIPER-00607,2026-118Z,2026-06-08T12:00:02.000160,15.37282454,.0006386,51.8679,95.2808,127.4638,320.1581,0,U,69290,999,216,-.20195E-3,-.7883E-4,0
KUIPER-00608,2026-118AA,2026-06-08T12:00:02.000160,15.36125604,.0009574,51.8600,95.3493,146.9219,267.2285,0,U,69291,999,213,-.57193E-2,-.199866E-2,0
KUIPER-00610,2026-118AB,2026-06-08T12:00:02.000160,15.38139112,.0002922,51.8718,95.2141,106.5381,10.2388,0,U,69292,999,205,-.17043E-3,-.6891E-4,0
KUIPER-00613,2026-118AC,2026-06-08T12:00:02.000160,15.35316227,.0010406,51.8624,95.3776,156.9165,243.4255,0,U,69293,999,130,.14849E-3,.4795E-4,0
KUIPER-00618,2026-118AD,2026-06-08T12:00:02.000160,15.38537979,.0002255,51.8717,95.1852,67.1808,63.1802,0,U,69294,999,138,-.2158E-3,-.8726E-4,0
KUIPER-00620,2026-118AE,2026-06-08T12:00:02.000160,15.38228472,.0003061,51.8714,95.2096,91.1642,28.5839,0,U,69295,999,259,-.22849E-3,-.9127E-4,0
STARLINK-37501,2026-119A,2026-06-08T12:00:02.000160,15.79867009,.0000847,97.2838,184.8405,116.2534,39.9300,0,U,69296,999,249,.12268E-2,.231004E-2,0
STARLINK-37496,2026-119B,2026-06-08T12:00:02.000160,15.79865674,.0000542,97.2838,184.8395,110.7858,42.6976,0,U,69297,999,249,.12402E-2,.233592E-2,0
STARLINK-37519,2026-119C,2026-06-08T12:00:02.000160,15.80775935,.000131,97.2836,184.8471,87.2038,82.4141,0,U,69298,999,249,.61648E-3,.119353E-2,0
STARLINK-37455,2026-119D,2026-06-08T12:00:02.000160,15.79892552,.0001474,97.2838,184.8436,89.1821,73.9127,0,U,69299,999,249,.6313E-3,.11739E-2,0
STARLINK-37456,2026-119E,2026-06-08T12:00:02.000160,15.80774965,.0000811,97.2836,184.8479,109.5742,64.5379,0,U,69300,999,249,.63949E-3,.12387E-2,0
STARLINK-37630,2026-119F,2026-06-08T12:00:02.000160,15.80771087,.000073,97.2837,184.8501,110.5018,66.2042,0,U,69301,999,265,.65932E-3,.12775E-2,0
STARLINK-37804,2026-119G,2026-06-08T12:00:02.000160,15.80748378,.0001228,97.2836,184.8504,146.3934,32.0109,0,U,69302,999,265,.13366E-2,.262934E-2,0
STARLINK-37730,2026-119H,2026-06-08T12:00:02.000160,15.80777962,.0000646,97.2834,184.8534,116.9878,69.8444,0,U,69303,999,265,.70017E-3,.135843E-2,0
STARLINK-37731,2026-119J,2026-06-08T12:00:02.000160,15.80785095,.0001555,97.2833,184.8523,118.0839,69.5023,0,U,69304,999,265,.682E-3,.132307E-2,0
STARLINK-37734,2026-119K,2026-06-08T12:00:02.000160,15.80774332,.0000715,97.2836,184.8557,119.4190,73.3868,0,U,69305,999,265,.63806E-3,.123585E-2,0
STARLINK-37701,2026-119L,2026-06-08T12:00:02.000160,15.80780278,.0000654,97.2835,184.8565,101.7044,92.6341,0,U,69306,999,265,.5445E-3,.105248E-2,0
STARLINK-37732,2026-119M,2026-06-08T12:00:02.000160,15.80763392,.0001491,97.2835,184.8570,109.2790,87.4384,0,U,69307,999,265,.10067E-2,.196631E-2,0
STARLINK-37689,2026-119N,2026-06-08T12:00:02.000160,15.80785859,.0000802,97.2833,184.8598,111.6262,91.8195,0,U,69308,999,265,.50867E-3,.98258E-3,0
STARLINK-37619,2026-119P,2026-06-08T12:00:02.000160,15.80791835,.0001323,97.2833,184.8614,101.3516,105.0804,0,U,69309,999,265,.54046E-3,.104515E-2,0
STARLINK-37794,2026-119Q,2026-06-08T12:00:02.000160,15.80771054,.0000653,97.2833,184.8671,122.9716,96.1556,0,U,69310,999,265,.64126E-3,.124195E-2,0
STARLINK-37795,2026-119R,2026-06-08T12:00:02.000160,15.80733171,.0001351,97.2834,184.8682,100.9941,120.2205,0,U,69311,999,265,.11307E-2,.221191E-2,0
STARLINK-37790,2026-119S,2026-06-08T12:00:02.000160,15.80745315,.0001077,97.2834,184.8702,103.9278,122.6395,0,U,69312,999,265,.93847E-3,.182846E-2,0
STARLINK-37676,2026-119T,2026-06-08T12:00:02.000160,15.80786392,.0000662,97.2835,184.8750,121.1518,116.9303,0,U,69313,999,265,.41934E-3,.80818E-3,0
STARLINK-37617,2026-119U,2026-06-08T12:00:02.000160,15.80701566,.0001584,97.2832,184.8770,99.5340,143.5144,0,U,69314,999,265,.13777E-2,.270693E-2,0
STARLINK-37627,2026-119V,2026-06-08T12:00:02.000160,15.80750176,.0000629,97.2834,184.8777,145.1701,99.6553,0,U,69315,999,265,.80369E-3,.156117E-2,0
STARLINK-37738,2026-119W,2026-06-08T12:00:02.000160,15.80752746,.0001412,97.2835,184.8733,99.0230,133.0175,0,U,69316,999,265,.16935E-2,.336086E-2,0
STARLINK-37799,2026-119X,2026-06-08T12:00:02.000160,15.80801103,.0001343,97.2833,184.8763,117.2667,123.4779,0,U,69317,999,260,.6245E-3,.12107E-2,0
STARLINK-37802,2026-119Y,2026-06-08T12:00:02.000160,15.80753714,.0000986,97.2835,184.8815,111.7980,140.5025,0,U,69318,999,265,.81997E-3,.159368E-2,0
