KUIPER-00606            
1 69289U 26118Y   26159.50002315 -.00007943  00000+0 -20156-3 0  9992
2 69289  51.8693  95.2567 0004694 121.4253 337.1977 15.37597904  2204
KUIPER-00607            
1 69290U 26118Z   26159.50002315 -.00007883  00000+0 -20195-3 0  9990
2 69290  51.8679  95.2808 0006386 127.4638 320.1581 15.37282454  2160
KUIPER-00608            
1 69291U 26118AA  26159.50002315 -.00199866  00000+0 -57193-2 0  9991
2 69291  51.8600  95.3493 0009574 146.9219 267.2285 15.36125604  2130
KUIPER-00610            
1 69292U 26118AB  26159.50002315 -.00006891  00000+0 -17043-3 0  9998
2 69292  51.8718  95.2141 0002922 106.5381  10.2388 15.38139112  2054
KUIPER-00613            
1 69293U 26118AC  26159.50002315  .00004795  00000+0  14849-3 0  9999
2 69293  51.8624  95.3776 0010406 156.9165 243.4255 15.35316227  1302
KUIPER-00618            
1 69294U 26118AD  26159.50002315 -.00008726  00000+0 -21580-3 0  9990
2 69294  51.8717  95.1852 0002255  67.1808  63.1802 15.38537979  1384
KUIPER-00620            
1 69295U 26118AE  26159.50002315 -.00009127  00000+0 -22849-3 0  9996
2 69295  51.8714  95.2096 0003061  91.1642  28.5839 15.38228472  2596
STARLINK-37501          
1 69296U 26119A   26159.50002315  .00231004  00000+0  12268-2 0  9990
2 69296  97.2838 184.8405 0000847 116.2534  39.9300 15.79867009  2493
STARLINK-37496          
1 69297U 26119B   26159.50002315  .00233592  00000+0  12402-2 0  9995
2 69297  97.2838 184.8395 0000542 110.7858  42.6976 15.79865674  2498
STARLINK-37519          
1 69298U 26119C   26159.50002315  .00119353  00000+0  61648-3 0  9991
2 69298  97.2836 184.8471 0001310  87.2038  82.4141 15.80775935  2492
STARLINK-37455          
1 69299U 26119D   26159.50002315  .00117390  00000+0  63130-3 0  9999
2 69299  97.2838 184.8436 0001474  89.1821  73.9127 15.79892552  2490
STARLINK-37456          
1 69300U 26119E   26159.50002315  .00123870  00000+0  63949-3 0  9990
2 69300  97.2836 184.8479 0000811 109.5742  64.5379 15.80774965  2495
STARLINK-37630          
1 69301U 26119F   26159.50002315  .00127750  00000+0  65932-3 0  9996
2 69301  97.2837 184.8501 0000730 110.5018  66.2042 15.80771087  2657
STARLINK-37804          
1 69302U 26119G   26159.50002315  .00262934  00000+0  13366-2 0  9994
2 69302  97.2836 184.8504 0001228 146.3934  32.0109 15.80748378  2659
STARLINK-37730          
1 69303U 26119H   26159.50002315  .00135843  00000+0  70017-3 0  9990
2 69303  97.2834 184.8534 0000646 116.9878  69.8444 15.80777962  2655
STARLINK-37731          
1 69304U 26119J   26159.50002315  .00132307  00000+0  68200-3 0  9994
2 69304  97.2833 184.8523 0001555 118.0839  69.5023 15.80785095  2659
STARLINK-37734          
1 69305U 26119K   26159.50002315  .00123585  00000+0  63806-3 0  9990
2 69305  97.2836 184.8557 0000715 119.4190  73.3868 15.80774332  2654
STARLINK-37701          
1 69306U 26119L   26159.50002315  .00105248  00000+0  54450-3 0  9992
2 69306  97.2835 184.8565 0000654 101.7044  92.6341 15.80780278  2653
STARLINK-37732          
1 69307U 26119M   26159.50002315  .00196631  00000+0  10067-2 0  9994
2 69307  97.2835 184.8570 0001491 109.2790  87.4384 15.80763392  2658
STARLINK-37689          
1 69308U 26119N   26159.50002315  .00098258  00000+0  50867-3 0  9994
2 69308  97.2833 184.8598 0000802 111.6262  91.8195 15.80785859  2654
STARLINK-37619          
1 69309U 26119P   26159.50002315  .00104515  00000+0  54046-3 0  9992
2 69309  97.2833 184.8614 0001323 101.3516 105.0804 15.80791835  2657
STARLINK-37794          
1 69310U 26119Q   26159.50002315  .00124195  00000+0  64126-3 0  9990
2 69310  97.2833 184.8671 0000653 122.9716  96.1556 15.80771054  2653
STARLINK-37795          
1 69311U 26119R   26159.50002315  .00221191  00000+0  11307-2 0  9997
2 69311  97.2834 184.8682 0001351 100.9941 120.2205 15.80733171  2657
STARLINK-37790          
1 69312U 26119S   26159.50002315  .00182846  00000+0  93847-3 0  9991
2 69312  97.2834 184.8702 0001077 103.9278 122.6395 15.80745315  2651
STARLINK-37676          
1 69313U 26119T   26159.50002315  .00080818  00000+0  41934-3 0  9998
2 69313  97.2835 184.8750 0000662 121.1518 116.9303 15.80786392  2659
STARLINK-37617          
1 69314U 26119U   26159.50002315  .00270693  00000+0  13777-2 0  9994
2 69314  97.2832 184.8770 0001584  99.5340 143.5144 15.80701566  2653
STARLINK-37627          
1 69315U 26119V   26159.50002315  .00156117  00000+0  80369-3 0  9991
2 69315  97.2834 184.8777 0000629 145.1701  99.6553 15.80750176  2657
STARLINK-37738          
1 69316U 26119W   26159.50002315  .00336086  00000+0  16935-2 0  9994
2 69316  97.2835 184.8733 0001412  99.0230 133.0175 15.80752746  2654
STARLINK-37799          
1 69317U 26119X   26159.50002315  .00121070  00000+0  62450-3 0  9994
2 69317  97.2833 184.8763 0001343 117.2667 123.4779 15.80801103  2606
STARLINK-37802          
1 69318U 26119Y   26159.50002315  .00159368  00000+0  81997-3 0  9993
2 69318  97.2835 184.8815 0000986 111.7980 140.5025 15.80753714  2659
